{
  "type": "FeatureCollection",
  "features": [
    { "type": "Feature",
      "properties": { "name": "Corner Cafe", "seats": 34, "roasts": true },
      "geometry": { "type": "Point", "coordinates": [13.4050, 52.5200] } },
    { "type": "Feature",
      "properties": { "name": "Rail Yard Coffee", "seats": 18, "roasts": false },
      "geometry": { "type": "Point", "coordinates": [9.9937, 53.5511] } },
    { "type": "Feature",
      "properties": { "name": "Old Town Espresso", "seats": 12, "roasts": true },
      "geometry": { "type": "Point", "coordinates": [11.5820, 48.1351] } },
    { "type": "Feature",
      "properties": { "name": "Market Square", "seats": 0, "roasts": false },
      "geometry": { "type": "Polygon", "coordinates": [[[6.9603, 50.9375], [6.9663, 50.9375], [6.9663, 50.9415], [6.9603, 50.9415], [6.9603, 50.9375]]] } }
  ]
}
