{
  "type": "FeatureCollection",
  "features": [
    {
      "type": "Feature",
      "properties": { "name": "North", "manager": "Ada" },
      "geometry": {
        "type": "Polygon",
        "coordinates": [[[5.9, 51.5], [15.0, 51.5], [15.0, 55.1], [5.9, 55.1], [5.9, 51.5]]]
      }
    },
    {
      "type": "Feature",
      "properties": { "name": "South", "manager": "Grace" },
      "geometry": {
        "type": "Polygon",
        "coordinates": [
          [[5.9, 47.2], [15.0, 47.2], [15.0, 51.5], [5.9, 51.5], [5.9, 47.2]],
          [[8.4, 49.9], [9.0, 49.9], [9.0, 50.3], [8.4, 50.3], [8.4, 49.9]]
        ]
      }
    }
  ]
}
